[{"OBJECT_NAME":"ION SCV-008","OBJECT_ID":"2023-001AU","EPOCH":"2026-03-09T19:46:58.662912","MEAN_MOTION":15.2722664,"ECCENTRICITY":0.00151921,"INCLINATION":97.5676,"RA_OF_ASC_NODE":163.606,"ARG_OF_PERICENTER":8.542,"MEAN_ANOMALY":351.6074,"EPHEMERIS_TYPE":0,"CLASSIFICATION_TYPE":"U","NORAD_CAT_ID":55051,"ELEMENT_SET_NO":999,"REV_AT_EPOCH":17616,"BSTAR":0.00031422806,"MEAN_MOTION_DOT":8.336e-5,"MEAN_MOTION_DDOT":0},{"OBJECT_NAME":"STARLINK-31988","OBJECT_ID":"2024-150U","EPOCH":"2026-03-09T23:22:10.589952","MEAN_MOTION":15.30185319,"ECCENTRICITY":0.00010232,"INCLINATION":53.161,"RA_OF_ASC_NODE":305.7921,"ARG_OF_PERICENTER":102.7851,"MEAN_ANOMALY":257.3264,"EPHEMERIS_TYPE":0,"CLASSIFICATION_TYPE":"U","NORAD_CAT_ID":60601,"ELEMENT_SET_NO":999,"REV_AT_EPOCH":8800,"BSTAR":2.2288396e-5,"MEAN_MOTION_DOT":3.01e-6,"MEAN_MOTION_DDOT":0}]
